[{"OBJECT_NAME":"STARLINK-3766","OBJECT_ID":"2022-041AM","EPOCH":"2026-03-09T19:13:41.018016","MEAN_MOTION":15.08840188,"ECCENTRICITY":0.0001405,"INCLINATION":53.2167,"RA_OF_ASC_NODE":98.6191,"ARG_OF_PERICENTER":90.4516,"MEAN_ANOMALY":269.6637,"EPHEMERIS_TYPE":0,"CLASSIFICATION_TYPE":"U","NORAD_CAT_ID":52296,"ELEMENT_SET_NO":999,"REV_AT_EPOCH":21452,"BSTAR":1.8732285e-5,"MEAN_MOTION_DOT":1.0e-7,"MEAN_MOTION_DDOT":0},{"OBJECT_NAME":"PRSC-S1","OBJECT_ID":"2025-164A","EPOCH":"2026-03-09T14:34:55.095168","MEAN_MOTION":15.0891951,"ECCENTRICITY":0.0004466,"INCLINATION":41.129,"RA_OF_ASC_NODE":129.3637,"ARG_OF_PERICENTER":348.3012,"MEAN_ANOMALY":11.7698,"EPHEMERIS_TYPE":0,"CLASSIFICATION_TYPE":"U","NORAD_CAT_ID":65055,"ELEMENT_SET_NO":999,"REV_AT_EPOCH":3340,"BSTAR":0.00046631,"MEAN_MOTION_DOT":7.316e-5,"MEAN_MOTION_DDOT":0}]
